{"type": "FeatureCollection", "features": [{"type": "Feature", "properties": {"OBJECTID": 1, "INSCRICAO": "01.02.000", "LOGRADOURO": "Rua Teste", "NUMERO": "100", "BAIRRO": "Centro", "AREA_TERRENO": "360,50", "QUADRA": "12", "NOME_PROPRIETARIO": "NAO DEVE SER LIDO"}, "geometry": {"type": "Polygon", "coordinates": [[[-45.71, -22.26], [-45.709, -22.26], [-45.709, -22.259], [-45.71, -22.259], [-45.71, -22.26]]]}}, {"type": "Feature", "properties": {"OBJECTID": 2, "INSCRICAO": "01.02.001", "LOGRADOURO": "Rua Teste", "NUMERO": "101", "BAIRRO": "Centro", "AREA_TERRENO": "360,50", "QUADRA": "12", "NOME_PROPRIETARIO": "NAO DEVE SER LIDO"}, "geometry": {"type": "Polygon", "coordinates": [[[-45.7089, -22.26], [-45.7079, -22.26], [-45.7079, -22.259], [-45.7089, -22.259], [-45.7089, -22.26]]]}}, {"type": "Feature", "properties": {"OBJECTID": 3, "INSCRICAO": "01.02.002", "LOGRADOURO": "Rua Teste", "NUMERO": "102", "BAIRRO": "Centro", "AREA_TERRENO": "360,50", "QUADRA": "12", "NOME_PROPRIETARIO": "NAO DEVE SER LIDO"}, "geometry": {"type": "Polygon", "coordinates": [[[-45.7078, -22.26], [-45.7068, -22.26], [-45.7068, -22.259], [-45.7078, -22.259], [-45.7078, -22.26]]]}}, {"type": "Feature", "properties": {"OBJECTID": 4, "INSCRICAO": "01.02.003", "LOGRADOURO": "Rua Teste", "NUMERO": "103", "BAIRRO": "Centro", "AREA_TERRENO": "360,50", "QUADRA": "12", "NOME_PROPRIETARIO": "NAO DEVE SER LIDO"}, "geometry": {"type": "Polygon", "coordinates": [[[-45.7067, -22.26], [-45.7057, -22.26], [-45.7057, -22.259], [-45.7067, -22.259], [-45.7067, -22.26]]]}}, {"type": "Feature", "properties": {"OBJECTID": 5, "INSCRICAO": "01.02.004", "LOGRADOURO": "Rua Teste", "NUMERO": "104", "BAIRRO": "Centro", "AREA_TERRENO": "360,50", "QUADRA": "12", "NOME_PROPRIETARIO": "NAO DEVE SER LIDO"}, "geometry": {"type": "Polygon", "coordinates": [[[-45.71, -22.2589], [-45.709, -22.2589], [-45.709, -22.2579], [-45.71, -22.2579], [-45.71, -22.2589]]]}}, {"type": "Feature", "properties": {"OBJECTID": 6, "INSCRICAO": "01.02.005", "LOGRADOURO": "Rua Teste", "NUMERO": "105", "BAIRRO": "Centro", "AREA_TERRENO": "360,50", "QUADRA": "12", "NOME_PROPRIETARIO": "NAO DEVE SER LIDO"}, "geometry": {"type": "Polygon", "coordinates": [[[-45.7089, -22.2589], [-45.7079, -22.2589], [-45.7079, -22.2579], [-45.7089, -22.2579], [-45.7089, -22.2589]]]}}, {"type": "Feature", "properties": {"OBJECTID": 7, "INSCRICAO": "01.02.006", "LOGRADOURO": "Rua Teste", "NUMERO": "106", "BAIRRO": "Centro", "AREA_TERRENO": "360,50", "QUADRA": "12", "NOME_PROPRIETARIO": "NAO DEVE SER LIDO"}, "geometry": {"type": "Polygon", "coordinates": [[[-45.7078, -22.2589], [-45.7068, -22.2589], [-45.7068, -22.2579], [-45.7078, -22.2579], [-45.7078, -22.2589]]]}}, {"type": "Feature", "properties": {"OBJECTID": 8, "INSCRICAO": "01.02.007", "LOGRADOURO": "Rua Teste", "NUMERO": "107", "BAIRRO": "Centro", "AREA_TERRENO": "360,50", "QUADRA": "12", "NOME_PROPRIETARIO": "NAO DEVE SER LIDO"}, "geometry": {"type": "Polygon", "coordinates": [[[-45.7067, -22.2589], [-45.7057, -22.2589], [-45.7057, -22.2579], [-45.7067, -22.2579], [-45.7067, -22.2589]]]}}, {"type": "Feature", "properties": {"OBJECTID": 9, "INSCRICAO": "01.02.008", "LOGRADOURO": "Rua Teste", "NUMERO": "108", "BAIRRO": "Centro", "AREA_TERRENO": "360,50", "QUADRA": "12", "NOME_PROPRIETARIO": "NAO DEVE SER LIDO"}, "geometry": {"type": "Polygon", "coordinates": [[[-45.71, -22.257800000000003], [-45.709, -22.257800000000003], [-45.709, -22.256800000000002], [-45.71, -22.256800000000002], [-45.71, -22.257800000000003]]]}}, {"type": "Feature", "properties": {"OBJECTID": 10, "INSCRICAO": "01.02.009", "LOGRADOURO": "Rua Teste", "NUMERO": "109", "BAIRRO": "Centro", "AREA_TERRENO": "360,50", "QUADRA": "12", "NOME_PROPRIETARIO": "NAO DEVE SER LIDO"}, "geometry": {"type": "Polygon", "coordinates": [[[-45.7089, -22.257800000000003], [-45.7079, -22.257800000000003], [-45.7079, -22.256800000000002], [-45.7089, -22.256800000000002], [-45.7089, -22.257800000000003]]]}}, {"type": "Feature", "properties": {"OBJECTID": 11, "INSCRICAO": "01.02.010", "LOGRADOURO": "Rua Teste", "NUMERO": "110", "BAIRRO": "Centro", "AREA_TERRENO": "360,50", "QUADRA": "12", "NOME_PROPRIETARIO": "NAO DEVE SER LIDO"}, "geometry": {"type": "Polygon", "coordinates": [[[-45.7078, -22.257800000000003], [-45.7068, -22.257800000000003], [-45.7068, -22.256800000000002], [-45.7078, -22.256800000000002], [-45.7078, -22.257800000000003]]]}}, {"type": "Feature", "properties": {"OBJECTID": 12, "INSCRICAO": "01.02.011", "LOGRADOURO": "Rua Teste", "NUMERO": "111", "BAIRRO": "Centro", "AREA_TERRENO": "360,50", "QUADRA": "12", "NOME_PROPRIETARIO": "NAO DEVE SER LIDO"}, "geometry": {"type": "Polygon", "coordinates": [[[-45.7067, -22.257800000000003], [-45.7057, -22.257800000000003], [-45.7057, -22.256800000000002], [-45.7067, -22.256800000000002], [-45.7067, -22.257800000000003]]]}}]}