{"type": "FeatureCollection", "features": [{"type": "Feature", "properties": {"FID": 1, "SIGLA": "ZR1", "NOME": "Zona Residencial 1"}, "geometry": {"type": "Polygon", "coordinates": [[[-45.72, -22.27], [-45.7045, -22.27], [-45.7045, -22.25], [-45.72, -22.25], [-45.72, -22.27]]]}}, {"type": "Feature", "properties": {"FID": 2, "SIGLA": "ZC", "NOME": "Zona Central"}, "geometry": {"type": "Polygon", "coordinates": [[[-45.7045, -22.27], [-45.69, -22.27], [-45.69, -22.25], [-45.7045, -22.25], [-45.7045, -22.27]]]}}]}